address_id,house_no,street_name,post_code,city
101,63c,Superior,CS4 4BO,Burnside
102,99q,Clarendon,WM1 0DT,Thorpe
103,30q,John Wall,EF7 2MP,Belfast
104,41m,Lakewood Gardens,XU1 2KI,Liverpool
105,25t,Kennedy,QC1 4MQ,Manchester
106,20d,Spaight,SH3 9JT,Middleton
107,94t,Dwight,BD6 9II,Newbiggin
108,05q,Onsgard,QT0 0GN,Denton
109,60e,Upham,AU5 8UD,Weston
110,01x,Main,NJ0 9JG,Hatton
111,77c,East,CS4 4BO,Burnside
112,62u,Prentice,WM1 0DT,Thorpe
113,07k,Claremont,EF7 2MP,Belfast
114,54l,Hagan,XU1 2KI,Liverpool
115,08p,Grim,QC1 4MQ,Manchester
116,01v,Crescent Oaks,SH3 9JT,Middleton
117,40t,Charing Cross,BD6 9II,Newbiggin
118,22r,Golf View,QT0 0GN,Denton
119,11r,Cascade,AU5 8UD,Weston
120,56c,Aberg,NJ0 9JG,Hatton
121,37i,Warrior,XV0 2HY,East End
122,10n,Porter,QK5 8FK,Bristol
123,46t,High Crossing,OX5 7YS,Middleton
124,72k,Pepper Wood,XT2 5KF,London
125,86y,Talisman,QH0 3HE,Sutton
126,03f,Texas,CU4 8FF,Normanton
127,84n,Banding,TF8 5QR,Birmingham
128,19d,Schurz,PH9 9QG,Linton
129,52z,Basil,SK3 1IZ,Middleton
130,95a,La Follette,HZ2 5IN,Halton
131,31p,Garrison,ZY0 4EZ,Sheffield
132,84o,Shopko,CA9 2QD,Kinloch
133,58m,Larry,UM2 7XU,Newbiggin
134,88t,Northridge,GC8 1ME,Upton
135,85p,Old Shore,VW0 5YN,Kingston
136,58s,Warrior,GW2 8FX,Newton
137,52s,Linden,NS6 6BT,Sutton
138,02j,Morrow,EY4 7SV,Bradford
139,97z,Duke,VA6 9XZ,Upton
140,96c,Hansons,GH4 2VR,Newton
141,60w,Springview,XV0 2HY,East End
142,78f,Superior,QK5 8FK,Bristol
143,32o,Anderson,OX5 7YS,Middleton
144,03p,Marcy,XT2 5KF,London
145,43n,7th,QH0 3HE,Sutton
146,62k,Tennyson,CU4 8FF,Normanton
147,83l,Nancy,TF8 5QR,Birmingham
148,96p,Randy,PH9 9QG,Linton
149,92g,Garrison,SK3 1IZ,Middleton
150,75p,Huxley,HZ2 5IN,Halton
151,02q,Esker,ZY0 4EZ,Sheffield
152,31e,Bayside,CA9 2QD,Kinloch
153,45j,Shasta,UM2 7XU,Newbiggin
154,91k,Di Loreto,GC8 1ME,Upton
155,76p,Cody,VW0 5YN,Kingston
156,75n,Burrows,GW2 8FX,Newton
157,20i,Almo,NS6 6BT,Sutton
158,42b,Orin,EY4 7SV,Bradford
159,57m,Merchant,VA6 9XZ,Upton
160,14i,Farwell,GH4 2VR,Newton
161,47s,Brickson Park,XV0 2HY,East End
162,82p,Mayer,QK5 8FK,Bristol
163,21n,Oak Valley,OX5 7YS,Middleton
164,53n,Eagle Crest,XT2 5KF,London
165,60w,Forster,QH0 3HE,Sutton
166,46u,Marquette,CU4 8FF,Normanton
167,63g,Daystar,TF8 5QR,Birmingham
168,20f,School,PH9 9QG,Linton
169,66s,Moulton,SK3 1IZ,Middleton
170,75z,Heath,HZ2 5IN,Halton
171,32z,Artisan,ZY0 4EZ,Sheffield
172,43d,Hagan,CA9 2QD,Kinloch
173,77g,Susan,UM2 7XU,Newbiggin
174,38o,Continental,GC8 1ME,Upton
175,87h,Grover,VW0 5YN,Kingston
176,32r,Veith,GW2 8FX,Newton
177,63d,Pepper Wood,IP3 8HL,Milton
178,97j,Hazelcrest,KD5 4AK,Sutton
179,32x,Westridge,UE9 9OV,Twyford
180,80k,Porter,SL8 4EE,Edinburgh
181,52m,Sloan,KY2 8BP,Newton
182,52s,Vera,IU5 7AK,Charlton
183,60a,Lukken,KX9 3TA,Preston
184,03s,Evergreen,SO2 0BE,Twyford
185,63x,Texas,PR5 1CQ,Langley
186,24z,Becker,GW8 6KR,Newtown
187,99y,Sloan,PL8 2TA,Newbiggin
188,04t,Dixon,SW1 9FP,Milton
189,86l,Ruskin,IS8 7BI,London
190,01b,Lien,KH5 8XM,Wootton
191,77k,Roxbury,GH8 4XH,Norton
192,53z,Dryden,ZM3 4IU,Norton
193,65t,Eliot,MZ1 7SI,London
194,87c,Coolidge,FI6 5XL,Burnside
195,87l,Coleman,KT5 7OJ,West End
196,74m,Bunting,BU3 3UV,Sutton
197,30l,Carberry,OY9 4CP,Sheffield
198,10g,Ridgeview,SW8 5PI,London
199,99j,Tennyson,JH8 5CS,Tullich
200,65y,Bashford,ZV5 9XO,Weston
201,70b,Lotheville,VQ5 8DR,Kinloch
202,32u,Dahle,MM7 5YR,Milton
203,15p,Blackbird,LW5 1SC,Birmingham
204,50q,Nelson,QV8 7SE,Kinloch
205,20u,Almo,EG0 7EC,Glasgow
206,69q,John Wall,NT0 0QC,Birmingham
207,74s,Mariners Cove,PP8 2GM,Pentre
208,30o,Northland,IC1 5LN,Kirkton
209,02t,Kinsman,YD8 4YX,Preston
210,60m,Sugar,XB0 1KO,Tullich
211,69v,Lotheville,NJ4 5YJ,Horton
212,52e,Brown,PY7 5WK,Swindon
213,28e,Novick,RE6 0BW,Eaton
214,79b,Brentwood,QH9 4JX,London
215,19k,Eastwood,SI4 1NP,Kinloch
216,54w,Chinook,QU1 8JL,Marston
217,65p,Carpenter,HY3 1UD,Upton
218,05t,Rieder,ZE7 3NU,Whitchurch
219,01c,Arizona,QI8 7FV,Manchester
220,98p,Clemons,HS3 9BF,Langley
221,57c,Bonner,DW0 8VV,Brampton
222,21u,Norway Maple,FC2 5KN,London
223,11w,Hanover,TB0 4VF,Ford
224,12i,Mandrake,UB5 0PY,Wirral
225,73o,Little Fleur,BN1 2FE,Newton
226,87g,Elka,KO2 9ZB,Belfast
227,34l,Reindahl,ZE5 1WH,Tullich
228,86i,Bellgrove,MW7 5TA,Merton
229,48p,Logan,JH8 5CS,Tullich
230,39b,Vahlen,ZV5 9XO,Weston
231,28p,Derek,VQ5 8DR,Kinloch
232,55j,Park Meadow,MM7 5YR,Milton
233,43n,Susan,LW5 1SC,Birmingham
234,26x,Vermont,QV8 7SE,Kinloch
235,83n,Oak,EG0 7EC,Glasgow
236,76u,Debra,NT0 0QC,Birmingham
237,12w,Ridgeway,PP8 2GM,Pentre
238,07i,Sutteridge,IC1 5LN,Kirkton
239,65h,Maryland,YD8 4YX,Preston
240,43q,Straubel,XB0 1KO,Tullich
241,99e,Summer Ridge,NJ4 5YJ,Horton
242,91a,Homewood,PY7 5WK,Swindon
243,23n,John Wall,RE6 0BW,Eaton
244,47v,Upham,QH9 4JX,London
245,84y,Sunnyside,SI4 1NP,Kinloch
246,77a,Kropf,QU1 8JL,Marston
247,53h,Blackbird,HY3 1UD,Upton
248,34r,Meadow Ridge,ZE7 3NU,Whitchurch
249,28k,Fuller,QI8 7FV,Manchester
250,86s,Calypso,HS3 9BF,Langley
251,63t,Quincy,DW0 8VV,Brampton
252,60f,Jana,FC2 5KN,London
253,04d,Briar Crest,TB0 4VF,Ford
254,74q,Morning,UB5 0PY,Wirral
255,21x,Pawling,BN1 2FE,Newton
256,25p,Banding,KO2 9ZB,Belfast
257,16b,Donald,ZE5 1WH,Tullich
258,67y,Saint Paul,MW7 5TA,Merton
259,23v,Del Mar,XC7 8YS,Sutton
260,84a,Kropf,GA2 3RP,Marston
261,90r,American,UA0 0UM,Kirkton
262,50r,Vermont,HS8 5MH,Wootton
263,71t,Lukken,WB1 0HZ,Walton
264,70r,Dixon,DQ7 6VS,London
265,34f,Lighthouse Bay,UK4 8CJ,Swindon
266,69x,Londonderry,MD9 1HF,Whitwell
267,53d,Manufacturers,WZ5 5PY,Birmingham
268,17g,Merchant,WL2 5PF,Norton
269,10s,Cordelia,PM5 1JS,Weston
270,56a,Fulton,CY3 0DG,Horton
271,30i,Division,OT9 0RA,Aberdeen
272,42m,Kedzie,HT0 8EZ,Hatton
273,40g,Nevada,MD5 8PO,Linton
274,09f,Shopko,KY9 5AL,London
275,43b,Basil,KK0 9SW,East End
276,55y,Sachs,KM1 9OE,West End
277,70p,Summit,HC3 4PS,Normanton
278,95y,Homewood,EH6 0WP,Normanton
279,49x,Prairieview,OG8 3LB,Weston
280,84k,Spaight,TJ0 5WD,Milton
281,06m,Valley Edge,ZU1 2LJ,Newton
282,37x,Petterle,KM3 6HI,London
283,58e,Rockefeller,DJ1 3YJ,Bradford
284,39n,Sachs,EK2 5VY,Upton
285,51n,Swallow,TR2 7UN,Birmingham
286,19f,Nobel,FV9 9DB,Dean
287,94k,Transport,PI7 5KA,Bristol
288,03l,Del Sol,DD6 2XI,Twyford
289,66y,Lien,CF1 4CU,Milton
290,30g,Ilene,YU1 4HG,London
291,20q,Lindbergh,DX4 5VH,Marston
292,48o,Nelson,EH6 0WP,Normanton
293,46q,Basil,OG8 3LB,Weston
294,29p,Longview,TJ0 5WD,Milton
295,38d,Vahlen,ZU1 2LJ,Newton
296,67y,Duke,KM3 6HI,London
297,94d,Meadow Valley,DJ1 3YJ,Bradford
298,61p,Nobel,EK2 5VY,Upton
299,14j,Rusk,TR2 7UN,Birmingham
300,32z,Milwaukee,FV9 9DB,Dean
